1 47736U 21017Q   22212.65663417  .00000220  00000-0  33665-4 0  9996
2 47736  53.0560 354.0191 0001282  78.6623 281.4510 15.06400227 79415
1 47736U 21017Q   22213.38645400  .00000348  00000-0  42238-4 0  9996
2 47736  53.0562 350.7435 0001280  75.9000 284.2131 15.06392068 79523
1 47736U 21017Q   22213.65184418  .00000063  00000-0  23148-4 0  9996
2 47736  53.0562 349.5517 0001275  76.5731 283.5401 15.06390038 79563
1 47736U 21017Q   22213.65184418  .00000063  00000-0  23148-4 0  9996
2 47736  53.0562 349.5517 0001275  76.5731 283.5401 15.06390038 78887
1 47736U 21017Q   22214.51434884 -.00000060  00000-0  14895-4 0  9994
2 47736  53.0564 345.6795 0001309  78.0430 282.0706 15.06399108 79694
1 47736U 21017Q   22214.51434884 -.00000060  00000-0  14895-4 0  9994
2 47736  53.0564 345.6795 0001309  78.0430 282.0706 15.06399108 79010
1 47736U 21017Q   22215.50955707 -.00000139  00000-0  95825-5 0  9996
2 47736  53.0560 341.2115 0001291  76.2771 283.8362 15.06389413 79848
1 47736U 21017Q   22215.64225042 -.00000038  00000-0  16354-4 0  9990
2 47736  53.0560 340.6159 0001307  76.1716 283.9418 15.06390509 79183
1 47736U 21017Q   22216.30571640 -.00000332  00000-0 -34100-5 0  9990
2 47736  53.0557 337.6374 0001283  80.2365 279.8769 15.06398602 79289
1 47736U 21017Q   22216.50475507  .00000016  00000-0  19984-4 0  9996
2 47736  53.0558 336.7441 0001320  76.4301 283.6835 15.06400242 79993
1 47736U 21017Q   22216.77013978  .00000348  00000-0  42285-4 0  9993
2 47736  53.0558 335.5527 0001328  76.2140 283.8996 15.06402713 80034
1 47736U 21017Q   22217.49996260  .00000362  00000-0  43187-4 0  9995
2 47736  53.0556 332.2765 0001344  75.6508 284.4630 15.06390412 80145
1 47736U 21017Q   22217.83169522  .00000626  00000-0  60942-4 0  9997
2 47736  53.0556 330.7872 0001353  75.3762 284.7377 15.06393856 79511
1 47736U 21017Q   22218.49515745  .00000806  00000-0  72973-4 0  9999
2 47736  53.0556 327.8089 0001349  76.5537 283.5602 15.06402507 79619
1 47736U 21017Q   22218.56150361  .00000826  00000-0  74310-4 0  9995
2 47736  53.0557 327.5111 0001355  78.5575 281.5566 15.06403139 80301
1 47736U 21017Q   22219.29132778  .00000057  00000-0  22735-4 0  9998
2 47736  53.0559 324.2351 0001430  85.6161 274.4991 15.06390756 79735
1 47736U 21017Q   22219.55671313  .00000468  00000-0  50301-4 0  9996
2 47736  53.0559 323.0438 0001405  84.9303 275.1846 15.06394281 80455
1 47736U 21017Q   22219.68940432  .00000782  00000-0  71415-4 0  9999
2 47736  53.0558 322.4478 0001370  85.1917 274.9228 15.06397371 80472
1 47736U 21017Q   22219.68940432  .00000782  00000-0  71415-4 0  9999
2 47736  53.0558 322.4478 0001370  85.1917 274.9228 15.06397371 79795
1 47736U 21017Q   22220.48555561  .00001658  00000-0  13013-3 0  9996
2 47736  53.0551 318.8741 0001187  77.7515 282.3606 15.06407576 80599
1 47736U 21017Q   22220.48555561  .00001658  00000-0  13013-3 0  9996
2 47736  53.0551 318.8741 0001187  77.7515 282.3606 15.06407576 79913
1 47736U 21017Q   22220.68459616  .00001513  00000-0  12045-3 0  9996
2 47736  53.0549 317.9808 0001192  75.9668 284.1453 15.06406771 80625
1 47736U 21017Q   22221.48076015  .00000462  00000-0  49910-4 0  9997
2 47736  53.0550 314.4063 0001145  77.5595 282.5522 15.06401015 80060
1 47736U 21017Q   22221.54710862  .00000234  00000-0  34588-4 0  9991
2 47736  53.0550 314.1085 0001202  76.0526 284.0597 15.06399092 80759
1 47736U 21017Q   22221.94520071 -.00001789  00000-0 -10127-3 0  9996
2 47736  53.0549 312.3219 0001215  73.3900 286.7223 15.06388674 80137
1 47736U 21017Q   22222.40964188 -.00003706  00000-0 -23015-3 0  9990
2 47736  53.0549 310.2367 0001246  74.1915 285.9211 15.06378474 80884
1 47736U 21017Q   22222.40964188 -.00003706  00000-0 -23015-3 0  9990
2 47736  53.0549 310.2367 0001246  74.1915 285.9211 15.06378474 80200
1 47736U 21017Q   22223.20580858 -.00002657  00000-0 -15966-3 0  9997
2 47736  53.0549 306.6625 0001276  74.0315 286.0814 15.06381449 80322
1 47736U 21017Q   22223.53754338 -.00000909  00000-0 -42154-4 0  9997
2 47736  53.0549 305.1734 0001314  74.8073 285.3062 15.06380875 81059
1 47736U 21017Q   22223.93562555  .00000673  00000-0  64111-4 0  9992
2 47736  53.0548 303.3864 0001311  74.1130 286.0003 15.06381440 80439
1 47736U 21017Q   22224.53274556  .00003352  00000-0  24392-3 0  9993
2 47736  53.0547 300.7054 0001243  74.2019 285.9107 15.06385388 81205
1 47736U 21017Q   22224.53274556  .00003352  00000-0  24392-3 0  9993
2 47736  53.0547 300.7054 0001243  74.2019 285.9107 15.06385388 80529
1 47736U 21017Q   22224.59909227  .00003435  00000-0  24947-3 0  9997
2 47736  53.0545 300.4074 0001239  73.2500 286.8625 15.06386513 81218
1 47736U 21017Q   22224.93082344  .00002709  00000-0  20071-3 0  9994
2 47736  53.0546 298.9182 0001234  73.7346 286.3779 15.06397871 80581
1 47736U 21017Q   22225.46159190  .00003356  00000-0  24405-3 0  9991
2 47736  53.0546 296.5354 0001246  72.7903 287.3222 15.06405542 81341
1 47736U 21017Q   22226.12506666  .00000582  00000-0  57976-4 0  9997
2 47736  53.0550 293.5579 0001305  69.7739 290.3391 15.06401360 80761
1 47736U 21017Q   22226.45680548 -.00000738  00000-0 -30685-4 0  9998
2 47736  53.0546 292.0679 0001245  70.8913 289.2211 15.06396609 81499
1 47736U 21017Q   22226.45680548 -.00000738  00000-0 -30685-4 0  9998
2 47736  53.0546 292.0679 0001245  70.8913 289.2211 15.06396609 80814
1 47736U 21017Q   22227.18661447 -.00001076  00000-0 -53342-4 0  9997
2 47736  53.0545 288.7924 0001264  67.8048 292.3074 15.06404397 80922
1 47736U 21017Q   22227.51834398 -.00000727  00000-0 -29889-4 0  9992
2 47736  53.0544 287.3026 0001251  67.2170 292.8951 15.06407751 81652
1 47736U 21017Q   22227.58469082  .00000010  00000-0  19564-4 0  9995
2 47736  53.0542 287.0046 0001246  66.8911 293.2210 15.06404577 81668
1 47736U 21017Q   22228.44720605  .00000400  00000-0  45718-4 0  9995
2 47736  53.0541 283.1324 0001277  68.5858 291.5267 15.06393405 81790
1 47736U 21017Q   22228.44720605  .00000400  00000-0  45718-4 0  9995
2 47736  53.0541 283.1324 0001277  68.5858 291.5267 15.06393405 81116
1 47736U 21017Q   22229.37605644  .00000570  00000-0  57156-4 0  9990
2 47736  53.0540 278.9625 0001319  69.0426 291.0704 15.06403027 81938
1 47736U 21017Q   22229.37605644  .00000570  00000-0  57156-4 0  9990
2 47736  53.0540 278.9625 0001319  69.0426 291.0704 15.06403027 81253
1 47736U 21017Q   22230.10587565 -.00000030  00000-0  16916-4 0  9995
2 47736  53.0541 275.6868 0001504  71.0731 289.0421 15.06395870 81366
1 47736U 21017Q   22230.43761100  .00000515  00000-0  53473-4 0  9996
2 47736  53.0544 274.1989 0001527  68.4819 291.6333 15.06393876 82095
1 47736U 21017Q   22231.43279971  .00000791  00000-0  71958-4 0  9991
2 47736  53.0538 269.7295 0001465  70.3606 289.7541 15.06409161 82246
1 47736U 21017Q   22231.43279971  .00000791  00000-0  71958-4 0  9991
2 47736  53.0538 269.7295 0001465  70.3606 289.7541 15.06409161 81560
1 47736U 21017Q   22232.09627812  .00000272  00000-0  37163-4 0  9999
2 47736  53.0541 266.7511 0001641  69.1517 290.9647 15.06393138 81663
1 47736U 21017Q   22232.42801745 -.00000669  00000-0 -25998-4 0  9990
2 47736  53.0532 265.2648 0001385  64.3083 295.8049 15.06388055 82391
1 47736U 21017Q   22232.82610378 -.00001628  00000-0 -90430-4 0  9993
2 47736  53.0528 263.4786 0001485  57.7188 302.3945 15.06386317 82457
1 47736U 21017Q   22232.82610378 -.00001628  00000-0 -90430-4 0  9993
2 47736  53.0528 263.4786 0001485  57.7188 302.3945 15.06386317 81771
1 47736U 21017Q   22233.35688341 -.00002382  00000-0 -14107-3 0  9991
2 47736  53.0537 261.0948 0001698  55.1864 304.9284 15.06388548 82531
1 47736U 21017Q   22234.08669994  .00000459  00000-0  49768-4 0  9998
2 47736  53.0531 257.8191 0001710  51.3756 308.7386 15.06383902 81961
1 47736U 21017Q   22234.35212446  .00034791  00000-0  23545-2 0  9993
2 47736  53.0535 256.6241 0002376  73.0745 287.0504 15.06218018 82682
1 47736U 21017Q   22234.35212446  .00034791  00000-0  23545-2 0  9993
2 47736  53.0535 256.6241 0002376  73.0745 287.0504 15.06218018 82008
1 47736U 21017Q   22234.75017318  .00001162  00000-0  96913-4 0  9995
2 47736  53.0537 254.8368 0001578  67.1770 292.9385 15.06382272 82742
1 47736U 21017Q   22234.75017318  .00001162  00000-0  96913-4 0  9995
2 47736  53.0537 254.8368 0001578  67.1770 292.9385 15.06382272 82067
1 47736U 21017Q   22235.47999165  .00000781  00000-0  71379-4 0  9999
2 47736  53.0536 251.5604 0001588  67.1157 292.9999 15.06387443 82856
1 47736U 21017Q   22236.07711359  .00000791  00000-0  71994-4 0  9997
2 47736  53.0537 248.8796 0001594  67.6349 292.4809 15.06392335 82269
1 47736U 21017Q   22236.40886483 -.00001759  00000-0 -99306-4 0  9999
2 47736  53.0535 247.3903 0001721  66.6007 293.5163 15.06374137 82998
1 47736U 21017Q   22236.40886483 -.00001759  00000-0 -99306-4 0  9999
2 47736  53.0535 247.3903 0001721  66.6007 293.5163 15.06374137 82314
1 47736U 21017Q   22236.74060271 -.00001446  00000-0 -78250-4 0  9993
2 47736  53.0535 245.9013 0001657  64.9115 295.2046 15.06376392 83044
1 47736U 21017Q   22237.00598902 -.00001495  00000-0 -81571-4 0  9994
2 47736  53.0537 244.7099 0000923  52.5656 307.5417 15.06378192 82403
1 47736U 21017Q   22237.33771160  .00000561  00000-0  56599-4 0  9992
2 47736  53.0535 243.2210 0001544  68.9291 291.1863 15.06394220 83130
1 47736U 21017Q   22237.33771160  .00000561  00000-0  56599-4 0  9992
2 47736  53.0535 243.2210 0001544  68.9291 291.1863 15.06394220 82454
1 47736U 21017Q   22237.73579329  .00000577  00000-0  57635-4 0  9998
2 47736  53.0535 241.4337 0001723  62.0272 298.0892 15.06395532 83194
1 47736U 21017Q   22238.39925965  .00000659  00000-0  63158-4 0  9990
2 47736  53.0535 238.4565 0001749  62.2279 297.8887 15.06399481 83299
1 47736U 21017Q   22238.39925965  .00000659  00000-0  63158-4 0  9990
2 47736  53.0535 238.4565 0001749  62.2279 297.8887 15.06399481 82614
1 47736U 21017Q   22238.73099674  .00002711  00000-0  20090-3 0  9995
2 47736  53.0535 236.9669 0001810  60.2947 299.8222 15.06390283 83348
